{
  "type": "FeatureCollection",
  "metadata": {
    "generated_at": "2026-10-03T20:53:50.096640",
    "source": "DATEX II - Bison Futé",
    "filter": "Inondations DIR Ouest (Bretagne / Pays de la Loire)",
    "count": 0,
    "count_active": 0,
    "count_finished": 0,
    "statistics": {
      "total_situations": 280,
      "dir_ouest": 131,
      "environmental_obstruction": 0,
      "inondations": 0,
      "actives": 0,
      "terminees": 0,
      "par_severite": {},
      "par_subtype": {},
      "sans_coords": 0
    }
  },
  "features": []
}